{"fetched_at":"2026-07-08T17:59:23.476Z","source":"https://celestrak.org/NORAD/elements/gp.php?GROUP=kuiper&FORMAT=JSON","constellation":"kuiper","records":[{"OBJECT_NAME":"KUIPER-00044","OBJECT_ID":"2025-134F","EPOCH":"2026-07-08T09:27:15.600384","CLASSIFICATION_TYPE":"U","MEAN_MOTION":14.7992496,"ECCENTRICITY":0.0000763,"INCLINATION":51.8992,"RA_OF_ASC_NODE":71.8028,"ARG_OF_PERICENTER":107.7806,"MEAN_ANOMALY":252.3239,"EPHEMERIS_TYPE":0,"NORAD_CAT_ID":64505,"ELEMENT_SET_NO":999,"REV_AT_EPOCH":5777,"BSTAR":0.00016092,"MEAN_MOTION_DOT":0.00001006,"MEAN_MOTION_DDOT":0},{"OBJECT_NAME":"KUIPER-00046","OBJECT_ID":"2025-134G","EPOCH":"2026-07-08T08:42:30.589056","CLASSIFICATION_TYPE":"U","MEAN_MOTION":14.79919794,"ECCENTRICITY":0.0000809,"INCLINATION":51.8989,"RA_OF_ASC_NODE":69.4135,"ARG_OF_PERICENTER":92.0552,"MEAN_ANOMALY":268.0503,"EPHEMERIS_TYPE":0,"NORAD_CAT_ID":64506,"ELEMENT_SET_NO":999,"REV_AT_EPOCH":5780,"BSTAR":-0.000028647,"MEAN_MOTION_DOT":-0.00000439,"MEAN_MOTION_DDOT":0},{"OBJECT_NAME":"KUIPER-00047","OBJECT_ID":"2025-134H","EPOCH":"2026-07-08T13:28:20.698752","CLASSIFICATION_TYPE":"U","MEAN_MOTION":14.79924953,"ECCENTRICITY":0.0000738,"INCLINATION":51.9004,"RA_OF_ASC_NODE":41.062,"ARG_OF_PERICENTER":107.003,"MEAN_ANOMALY":253.1013,"EPHEMERIS_TYPE":0,"NORAD_CAT_ID":64507,"ELEMENT_SET_NO":999,"REV_AT_EPOCH":5821,"BSTAR":0.00036739,"MEAN_MOTION_DOT":0.0000258,"MEAN_MOTION_DDOT":0},{"OBJECT_NAME":"KUIPER-00048","OBJECT_ID":"2025-134J","EPOCH":"2026-07-08T07:47:58.829280","CLASSIFICATION_TYPE":"U","MEAN_MOTION":14.79916342,"ECCENTRICITY":0.0000835,"INCLINATION":51.9011,"RA_OF_ASC_NODE":42.1196,"ARG_OF_PERICENTER":111.7015,"MEAN_ANOMALY":248.4036,"EPHEMERIS_TYPE":0,"NORAD_CAT_ID":64508,"ELEMENT_SET_NO":999,"REV_AT_EPOCH":5818,"BSTAR":0.00011554,"MEAN_MOTION_DOT":0.00000659,"MEAN_MOTION_DDOT":0},{"OBJECT_NAME":"KUIPER-00049","OBJECT_ID":"2025-134K","EPOCH":"2026-07-08T08:17:10.897728","CLASSIFICATION_TYPE":"U","MEAN_MOTION":14.79929865,"ECCENTRICITY":0.0000746,"INCLINATION":51.8995,"RA_OF_ASC_NODE":54.4962,"ARG_OF_PERICENTER":110.3261,"MEAN_ANOMALY":249.7781,"EPHEMERIS_TYPE":0,"NORAD_CAT_ID":64509,"ELEMENT_SET_NO":999,"REV_AT_EPOCH":5801,"BSTAR":-0.00027517,"MEAN_MOTION_DOT":-0.00002318,"MEAN_MOTION_DDOT":0},{"OBJECT_NAME":"KUIPER-00050","OBJECT_ID":"2025-134L","EPOCH":"2026-07-08T07:07:08.102784","CLASSIFICATION_TYPE":"U","MEAN_MOTION":14.79922694,"ECCENTRICITY":0.0000833,"INCLINATION":51.8992,"RA_OF_ASC_NODE":37.2306,"ARG_OF_PERICENTER":114.1749,"MEAN_ANOMALY":245.9301,"EPHEMERIS_TYPE":0,"NORAD_CAT_ID":64510,"ELEMENT_SET_NO":999,"REV_AT_EPOCH":5825,"BSTAR":0.000097249,"MEAN_MOTION_DOT":0.0000052,"MEAN_MOTION_DDOT":0},{"OBJECT_NAME":"KUIPER-00051","OBJECT_ID":"2025-134M","EPOCH":"2026-07-08T07:42:39.036960","CLASSIFICATION_TYPE":"U","MEAN_MOTION":14.79920441,"ECCENTRICITY":0.0000799,"INCLINATION":51.8995,"RA_OF_ASC_NODE":53.2936,"ARG_OF_PERICENTER":90.505,"MEAN_ANOMALY":269.6004,"EPHEMERIS_TYPE":0,"NORAD_CAT_ID":64511,"ELEMENT_SET_NO":999,"REV_AT_EPOCH":5802,"BSTAR":-0.0000070834,"MEAN_MOTION_DOT":-0.00000275,"MEAN_MOTION_DDOT":0},{"OBJECT_NAME":"KUIPER-00053","OBJECT_ID":"2025-134P","EPOCH":"2026-07-08T08:23:54.756384","CLASSIFICATION_TYPE":"U","MEAN_MOTION":14.81680272,"ECCENTRICITY":0.0000348,"INCLINATION":51.9014,"RA_OF_ASC_NODE":48.4936,"ARG_OF_PERICENTER":291.9557,"MEAN_ANOMALY":68.137,"EPHEMERIS_TYPE":0,"NORAD_CAT_ID":64513,"ELEMENT_SET_NO":999,"REV_AT_EPOCH":5809,"BSTAR":0.00018008,"MEAN_MOTION_DOT":0.00001207,"MEAN_MOTION_DDOT":0},{"OBJECT_NAME":"KUIPER-00054","OBJECT_ID":"2025-134Q","EPOCH":"2026-07-08T07:44:05.418816","CLASSIFICATION_TYPE":"U","MEAN_MOTION":14.79911641,"ECCENTRICITY":0.0000898,"INCLINATION":51.8978,"RA_OF_ASC_NODE":44.6119,"ARG_OF_PERICENTER":107.4298,"MEAN_ANOMALY":252.6762,"EPHEMERIS_TYPE":0,"NORAD_CAT_ID":64514,"ELEMENT_SET_NO":999,"REV_AT_EPOCH":5814,"BSTAR":-0.00025879,"MEAN_MOTION_DOT":-0.00002192,"MEAN_MOTION_DDOT":0},{"OBJECT_NAME":"KUIPER-00055","OBJECT_ID":"2025-134R","EPOCH":"2026-07-08T04:54:48.196800","CLASSIFICATION_TYPE":"U","MEAN_MOTION":14.79925929,"ECCENTRICITY":0.0000673,"INCLINATION":51.903,"RA_OF_ASC_NODE":357.7622,"ARG_OF_PERICENTER":120.2685,"MEAN_ANOMALY":239.8344,"EPHEMERIS_TYPE":0,"NORAD_CAT_ID":64515,"ELEMENT_SET_NO":999,"REV_AT_EPOCH":5879,"BSTAR":0.00025027,"MEAN_MOTION_DOT":0.00001687,"MEAN_MOTION_DDOT":0},{"OBJECT_NAME":"KUIPER-00056","OBJECT_ID":"2025-134S","EPOCH":"2026-07-08T08:24:58.585248","CLASSIFICATION_TYPE":"U","MEAN_MOTION":14.7992335,"ECCENTRICITY":0.0000834,"INCLINATION":51.9038,"RA_OF_ASC_NODE":49.5769,"ARG_OF_PERICENTER":98.514,"MEAN_ANOMALY":261.5917,"EPHEMERIS_TYPE":0,"NORAD_CAT_ID":64516,"ELEMENT_SET_NO":999,"REV_AT_EPOCH":5808,"BSTAR":0.00023332,"MEAN_MOTION_DOT":0.00001558,"MEAN_MOTION_DDOT":0},{"OBJECT_NAME":"KUIPER-00057","OBJECT_ID":"2025-134T","EPOCH":"2026-07-07T01:25:39.268128","CLASSIFICATION_TYPE":"U","MEAN_MOTION":14.7991598,"ECCENTRICITY":0.00001322,"INCLINATION":51.9023,"RA_OF_ASC_NODE":62.7186,"ARG_OF_PERICENTER":46.9552,"MEAN_ANOMALY":313.1421,"EPHEMERIS_TYPE":0,"NORAD_CAT_ID":64517,"ELEMENT_SET_NO":999,"REV_AT_EPOCH":5778,"BSTAR":-0.0016676765,"MEAN_MOTION_DOT":-0.00012904,"MEAN_MOTION_DDOT":0},{"OBJECT_NAME":"KUIPER-00058","OBJECT_ID":"2025-134U","EPOCH":"2026-07-08T07:32:27.141792","CLASSIFICATION_TYPE":"U","MEAN_MOTION":14.79921117,"ECCENTRICITY":0.0000666,"INCLINATION":51.9015,"RA_OF_ASC_NODE":52.1421,"ARG_OF_PERICENTER":97.3087,"MEAN_ANOMALY":262.7951,"EPHEMERIS_TYPE":0,"NORAD_CAT_ID":64518,"ELEMENT_SET_NO":999,"REV_AT_EPOCH":5804,"BSTAR":-0.0000041093,"MEAN_MOTION_DOT":-0.00000252,"MEAN_MOTION_DDOT":0},{"OBJECT_NAME":"KUIPER-00059","OBJECT_ID":"2025-134V","EPOCH":"2026-07-08T07:40:13.954080","CLASSIFICATION_TYPE":"U","MEAN_MOTION":14.79925269,"ECCENTRICITY":0.0000918,"INCLINATION":51.9006,"RA_OF_ASC_NODE":47.1572,"ARG_OF_PERICENTER":108.4109,"MEAN_ANOMALY":251.6953,"EPHEMERIS_TYPE":0,"NORAD_CAT_ID":64519,"ELEMENT_SET_NO":999,"REV_AT_EPOCH":5811,"BSTAR":0.00020768,"MEAN_MOTION_DOT":0.00001362,"MEAN_MOTION_DDOT":0},{"OBJECT_NAME":"KUIPER-00060","OBJECT_ID":"2025-134W","EPOCH":"2026-07-08T00:22:39.180864","CLASSIFICATION_TYPE":"U","MEAN_MOTION":14.79922103,"ECCENTRICITY":0.000071,"INCLINATION":51.904,"RA_OF_ASC_NODE":48.5622,"ARG_OF_PERICENTER":99.6401,"MEAN_ANOMALY":260.4642,"EPHEMERIS_TYPE":0,"NORAD_CAT_ID":64520,"ELEMENT_SET_NO":999,"REV_AT_EPOCH":5805,"BSTAR":0.00010822,"MEAN_MOTION_DOT":0.00000604,"MEAN_MOTION_DDOT":0},{"OBJECT_NAME":"KUIPER-00061","OBJECT_ID":"2025-134X","EPOCH":"2026-07-08T07:28:27.419808","CLASSIFICATION_TYPE":"U","MEAN_MOTION":14.79934366,"ECCENTRICITY":0.0000557,"INCLINATION":51.8991,"RA_OF_ASC_NODE":54.7111,"ARG_OF_PERICENTER":85.3298,"MEAN_ANOMALY":274.7727,"EPHEMERIS_TYPE":0,"NORAD_CAT_ID":64521,"ELEMENT_SET_NO":999,"REV_AT_EPOCH":5799,"BSTAR":-0.0019906,"MEAN_MOTION_DOT":-0.00015362,"MEAN_MOTION_DDOT":0}]}
