KUIPER-00044            
1 64505U 25134F   26189.39393056  .00001006  00000+0  16092-3 0  9996
2 64505  51.8992  71.8028 0000763 107.7806 252.3239 14.79924960 57770
KUIPER-00046            
1 64506U 25134G   26189.36285404 -.00000439  00000+0 -28647-4 0  9992
2 64506  51.8989  69.4135 0000809  92.0552 268.0503 14.79919794 57805
KUIPER-00047            
1 64507U 25134H   26189.56135068  .00002580  00000+0  36739-3 0  9992
2 64507  51.9004  41.0620 0000738 107.0030 253.1013 14.79924953 58219
KUIPER-00048            
1 64508U 25134J   26189.32498645  .00000659  00000+0  11554-3 0  9993
2 64508  51.9011  42.1196 0000835 111.7015 248.4036 14.79916342 58182
KUIPER-00049            
1 64509U 25134K   26189.34526502 -.00002318  00000+0 -27517-3 0  9992
2 64509  51.8995  54.4962 0000746 110.3261 249.7781 14.79929865 58016
KUIPER-00050            
1 64510U 25134L   26189.29662156  .00000520  00000+0  97249-4 0  9995
2 64510  51.8992  37.2306 0000833 114.1749 245.9301 14.79922694 58251
KUIPER-00051            
1 64511U 25134M   26189.32128515 -.00000275  00000+0 -70834-5 0  9997
2 64511  51.8995  53.2936 0000799  90.5050 269.6004 14.79920441 58021
KUIPER-00053            
1 64513U 25134P   26189.34993931  .00001207  00000+0  18008-3 0  9990
2 64513  51.9014  48.4936 0000348 291.9557  68.1370 14.81680272 58094
KUIPER-00054            
1 64514U 25134Q   26189.32228494 -.00002192  00000+0 -25879-3 0  9994
2 64514  51.8978  44.6119 0000898 107.4298 252.6762 14.79911641 58142
KUIPER-00055            
1 64515U 25134R   26189.20472450  .00001687  00000+0  25027-3 0  9996
2 64515  51.9030 357.7622 0000673 120.2685 239.8344 14.79925929 58792
KUIPER-00056            
1 64516U 25134S   26189.35067807  .00001558  00000+0  23332-3 0  9993
2 64516  51.9038  49.5769 0000834  98.5140 261.5917 14.79923350 58087
KUIPER-00057            
1 64517U 25134T   26188.05948227 -.00012904  00000+0 -16677-2 0  9996
2 64517  51.9023  62.7186 0000132  46.9552 313.1421 14.79915980 57787
KUIPER-00058            
1 64518U 25134U   26189.31420303 -.00000252  00000+0 -41093-5 0  9993
2 64518  51.9015  52.1421 0000666  97.3087 262.7951 14.79921117 58045
KUIPER-00059            
1 64519U 25134V   26189.31960595  .00001362  00000+0  20768-3 0  9991
2 64519  51.9006  47.1572 0000918 108.4109 251.6953 14.79925269 58115
KUIPER-00060            
1 64520U 25134W   26189.01573126  .00000604  00000+0  10822-3 0  9998
2 64520  51.9040  48.5622 0000710  99.6401 260.4642 14.79922103 58052
KUIPER-00061            
1 64521U 25134X   26189.31142847 -.00015362  00000+0 -19906-2 0  9994
2 64521  51.8991  54.7111 0000557  85.3298 274.7727 14.79934366 57992
